ONEWEB-0435             
1 51632U 22012L   25276.02354053  .00000409  00000+0  11365-2 0  9998
2 51632  87.8733  87.5607 0001313  98.0144 262.1133 13.10371312175634
ONEWEB-0436             
1 51633U 22012M   25276.32016490  .00000101  00000+0  22750-3 0  9992
2 51633  87.9082  56.9174 0001603 103.4095 256.7215 13.17648925179852
ONEWEB-0438             
1 51634U 22012N   25276.00694808  .00000773  00000+0  21790-2 0  9990
2 51634  87.8738  87.5647 0001748  84.3153 275.8174 13.10374248175665
ONEWEB-0439             
1 51635U 22012P   25276.23934163  .00000697  00000+0  19604-2 0  9993
2 51635  87.8738  87.5069 0001635  89.9263 270.2052 13.10372786175672
ONEWEB-0442             
1 51636U 22012Q   25275.93288189 -.00000003  00000+0 -40019-4 0  9999
2 51636  87.9074  57.0479 0002189  83.1452 276.9928 13.17650263179793
ONEWEB-0443             
1 51637U 22012R   25275.95227820 -.00000006  00000+0 -47985-4 0  9999
2 51637  87.9068  57.0506 0001577  84.8604 275.2708 13.17653397179840
ONEWEB-0444             
1 51638U 22012S   25275.92394686  .00000629  00000+0  17640-2 0  9994
2 51638  87.8736  87.5696 0001555  90.2714 269.8592 13.10375537175643
ONEWEB-0445             
1 51639U 22012T   25276.02187174  .00000416  00000+0  11558-2 0  9995
2 51639  87.8749  87.5062 0001884  91.3989 268.7354 13.10372561175666
